*******************************************************************************
Ephemeris / WWW_USER Mon Jul 15 19:14:30 2024 Pasadena, USA      / Horizons    
*******************************************************************************
Target body name: (2018 WV1)                      {source: JPL#17}
Center body name: Earth (399)                     {source: DE441}
Center-site name: Gemini South Obs., Cerro Pachon
*******************************************************************************
Start time      : A.D. 2019-Jan-27 23:53:00.0000 UT      
Stop  time      : A.D. 2019-Jan-28 09:58:00.0000 UT      
Step-size       : 1 minutes
*******************************************************************************
Target pole/equ : undefined
Target radii    : undefined                                                    
Center geodetic : 289.2634, -30.2406227, 2.71233  {E-lon(deg),Lat(deg),Alt(km)}
Center cylindric: 289.2634,5517.21435,-3194.81213 {E-lon(deg),Dxy(km),Dz(km)}
Center pole/equ : ITRF93                          {East-longitude positive}
Center radii    : 6378.137, 6378.137, 6356.752 km {Equator_a, b, pole_c}       
Target primary  : Sun
Vis. interferer : MOON (R_eq= 1737.400) km        {source: DE441}
Rel. light bend : Sun                             {source: DE441}
Rel. lght bnd GM: 1.3271E+11 km^3/s^2                                          
Small-body perts: Yes                             {source: SB441-N16}
Atmos refraction: NO (AIRLESS)
RA format       : HMS
Time format     : CAL 
Calendar mode   : Mixed Julian/Gregorian
RTS-only print  : NO       
EOP file        : eop.240715.p241008                                           
EOP coverage    : DATA-BASED 1962-JAN-20 TO 2024-JUL-15. PREDICTS-> 2024-OCT-07
Units conversion: 1 au= 149597870.700 km, c= 299792.458 km/s, 1 day= 86400.0 s 
Table cut-offs 1: Elevation (-90.0deg=NO ),Airmass (>38.000=NO), Daylight (YES)
Table cut-offs 2: Solar elongation (  0.0,180.0=NO ),Local Hour Angle( 0.0=NO )
Table cut-offs 3: RA/DEC angular rate (     0.0=NO )                           
*******************************************************************************
Initial IAU76/J2000 heliocentric ecliptic osculating elements (au, days, deg.):
  EPOCH=  2458458.5 ! 2018-Dec-06.00 (TDB)         Residual RMS= .12928        
   EC= .06869100257422787  QR= .9715505345748198   TP= 2458416.866413563       
   OM= 248.5061090469913   W=  141.3742304527303   IN= 1.905403987972275       
  Equivalent ICRF heliocentric cartesian coordinates (au, au/d):
   X= 2.787163119783287E-01  Y= 8.719775267121872E-01  Z= 3.748421051204766E-01
  VX=-1.676682657337402E-02 VY= 5.516972965834891E-03 VZ= 1.749720915605096E-03
Asteroid physical parameters (km, seconds, rotational period in hours):        
   GM= n.a.                RAD= n.a.               ROTPER= n.a.                
   H= 30.3                 G= .150                 B-V= n.a.                   
                           ALBEDO= n.a.            STYP= n.a.                  
*******************************************************************************
 Date__(UT)__HR:MN     R.A._________(ICRF)_________DEC
******************************************************
$$SOE
 2019-Jan-28 08:05  m  06 10 36.395925 +01 55 28.85468
 2019-Jan-28 08:06  m  06 10 36.435591 +01 55 29.50979
 2019-Jan-28 08:07  m  06 10 36.475395 +01 55 30.16490
 2019-Jan-28 08:08  m  06 10 36.515338 +01 55 30.82000
 2019-Jan-28 08:09  m  06 10 36.555421 +01 55 31.47510
 2019-Jan-28 08:10  m  06 10 36.595642 +01 55 32.13019
 2019-Jan-28 08:11  m  06 10 36.636002 +01 55 32.78527
 2019-Jan-28 08:12  m  06 10 36.676501 +01 55 33.44035
 2019-Jan-28 08:13  m  06 10 36.717139 +01 55 34.09542
 2019-Jan-28 08:14  m  06 10 36.757916 +01 55 34.75049
 2019-Jan-28 08:15  m  06 10 36.798833 +01 55 35.40556
 2019-Jan-28 08:16  m  06 10 36.839888 +01 55 36.06062
 2019-Jan-28 08:17  m  06 10 36.881083 +01 55 36.71567
 2019-Jan-28 08:18  m  06 10 36.922417 +01 55 37.37073
 2019-Jan-28 08:19  m  06 10 36.963890 +01 55 38.02578
 2019-Jan-28 08:20  m  06 10 37.005502 +01 55 38.68082
 2019-Jan-28 08:21  m  06 10 37.047253 +01 55 39.33587
 2019-Jan-28 08:22  m  06 10 37.089144 +01 55 39.99091
 2019-Jan-28 08:23  m  06 10 37.131173 +01 55 40.64595
 2019-Jan-28 08:24  m  06 10 37.173342 +01 55 41.30099
 2019-Jan-28 08:25  m  06 10 37.215651 +01 55 41.95602
 2019-Jan-28 08:26  m  06 10 37.258098 +01 55 42.61106
 2019-Jan-28 08:27  m  06 10 37.300684 +01 55 43.26609
 2019-Jan-28 08:28  m  06 10 37.343410 +01 55 43.92113
 2019-Jan-28 08:29  m  06 10 37.386275 +01 55 44.57616
 2019-Jan-28 08:30  m  06 10 37.429279 +01 55 45.23120
 2019-Jan-28 08:31  m  06 10 37.472422 +01 55 45.88623
 2019-Jan-28 08:32  s  06 10 37.515704 +01 55 46.54127
 2019-Jan-28 08:33  m  06 10 37.559126 +01 55 47.19630
 2019-Jan-28 08:34  m  06 10 37.602686 +01 55 47.85134
 2019-Jan-28 08:35  m  06 10 37.646385 +01 55 48.50638
 2019-Jan-28 08:36  m  06 10 37.690224 +01 55 49.16142
 2019-Jan-28 08:37  m  06 10 37.734201 +01 55 49.81647
 2019-Jan-28 08:38 Am  06 10 37.778317 +01 55 50.47151
 2019-Jan-28 08:39 Am  06 10 37.822573 +01 55 51.12656
 2019-Jan-28 08:40 Am  06 10 37.866967 +01 55 51.78161
 2019-Jan-28 08:41 Am  06 10 37.911499 +01 55 52.43667
 2019-Jan-28 08:42 Am  06 10 37.956171 +01 55 53.09173
 2019-Jan-28 08:43 Am  06 10 38.000981 +01 55 53.74679
 2019-Jan-28 08:44 Am  06 10 38.045930 +01 55 54.40186
 2019-Jan-28 08:45 Am  06 10 38.091018 +01 55 55.05693
 2019-Jan-28 08:46 Am  06 10 38.136244 +01 55 55.71201
 2019-Jan-28 08:47 Am  06 10 38.181608 +01 55 56.36709
 2019-Jan-28 08:48 Am  06 10 38.227111 +01 55 57.02218
 2019-Jan-28 08:49 Am  06 10 38.272752 +01 55 57.67728
 2019-Jan-28 08:50 Am  06 10 38.318532 +01 55 58.33238
 2019-Jan-28 08:51 Am  06 10 38.364449 +01 55 58.98748
 2019-Jan-28 08:52 Am  06 10 38.410505 +01 55 59.64260
 2019-Jan-28 08:53 Am  06 10 38.456699 +01 56 00.29772
 2019-Jan-28 08:54 Am  06 10 38.503031 +01 56 00.95285
 2019-Jan-28 08:55 Am  06 10 38.549501 +01 56 01.60798
 2019-Jan-28 08:56 Am  06 10 38.596108 +01 56 02.26313
 2019-Jan-28 08:57 Am  06 10 38.642854 +01 56 02.91828
 2019-Jan-28 08:58 Am  06 10 38.689736 +01 56 03.57344
 2019-Jan-28 08:59 Am  06 10 38.736757 +01 56 04.22861
 2019-Jan-28 09:00 Am  06 10 38.783915 +01 56 04.88379
 2019-Jan-28 09:01 Am  06 10 38.831210 +01 56 05.53898
 2019-Jan-28 09:02 Am  06 10 38.878643 +01 56 06.19417
 2019-Jan-28 09:03 Am  06 10 38.926212 +01 56 06.84938
 2019-Jan-28 09:04 Am  06 10 38.973919 +01 56 07.50460
 2019-Jan-28 09:05 Am  06 10 39.021762 +01 56 08.15983
 2019-Jan-28 09:06 Am  06 10 39.069743 +01 56 08.81507
 2019-Jan-28 09:07 Am  06 10 39.117860 +01 56 09.47032
 2019-Jan-28 09:08 Am  06 10 39.166114 +01 56 10.12559
 2019-Jan-28 09:09 Am  06 10 39.214504 +01 56 10.78086
 2019-Jan-28 09:10 Am  06 10 39.263030 +01 56 11.43615
 2019-Jan-28 09:11 Nm  06 10 39.311693 +01 56 12.09145
 2019-Jan-28 09:12 Nm  06 10 39.360492 +01 56 12.74676
 2019-Jan-28 09:13 Nm  06 10 39.409427 +01 56 13.40209
 2019-Jan-28 09:14 Nm  06 10 39.458498 +01 56 14.05743
 2019-Jan-28 09:15 Nm  06 10 39.507704 +01 56 14.71278
 2019-Jan-28 09:16 Nm  06 10 39.557046 +01 56 15.36815
 2019-Jan-28 09:17 Nm  06 10 39.606523 +01 56 16.02353
 2019-Jan-28 09:18 Nm  06 10 39.656136 +01 56 16.67892
 2019-Jan-28 09:19 Nm  06 10 39.705884 +01 56 17.33433
 2019-Jan-28 09:20 Nm  06 10 39.755767 +01 56 17.98976
 2019-Jan-28 09:21 Nm  06 10 39.805785 +01 56 18.64520
 2019-Jan-28 09:22 Nm  06 10 39.855937 +01 56 19.30066
 2019-Jan-28 09:23 Nm  06 10 39.906224 +01 56 19.95613
 2019-Jan-28 09:24 Nm  06 10 39.956646 +01 56 20.61162
 2019-Jan-28 09:25 Nm  06 10 40.007201 +01 56 21.26713
 2019-Jan-28 09:26 Nm  06 10 40.057891 +01 56 21.92265
 2019-Jan-28 09:27 Nm  06 10 40.108715 +01 56 22.57819
 2019-Jan-28 09:28 Nm  06 10 40.159672 +01 56 23.23375
 2019-Jan-28 09:29 Nm  06 10 40.210763 +01 56 23.88932
 2019-Jan-28 09:30 Nm  06 10 40.261987 +01 56 24.54492
 2019-Jan-28 09:31 Nm  06 10 40.313345 +01 56 25.20053
 2019-Jan-28 09:32 Nm  06 10 40.364835 +01 56 25.85616
 2019-Jan-28 09:33 Nm  06 10 40.416459 +01 56 26.51181
 2019-Jan-28 09:34 Nm  06 10 40.468215 +01 56 27.16748
 2019-Jan-28 09:35 Nm  06 10 40.520104 +01 56 27.82317
 2019-Jan-28 09:36 Nm  06 10 40.572125 +01 56 28.47887
 2019-Jan-28 09:37 Nm  06 10 40.624278 +01 56 29.13460
 2019-Jan-28 09:38 Nm  06 10 40.676563 +01 56 29.79035
 2019-Jan-28 09:39 Nm  06 10 40.728980 +01 56 30.44612
 2019-Jan-28 09:40 Nm  06 10 40.781528 +01 56 31.10191
 2019-Jan-28 09:41 Nm  06 10 40.834208 +01 56 31.75772
 2019-Jan-28 09:42 Cm  06 10 40.887019 +01 56 32.41356
 2019-Jan-28 09:43 Cm  06 10 40.939961 +01 56 33.06941
 2019-Jan-28 09:44 Cm  06 10 40.993033 +01 56 33.72529
 2019-Jan-28 09:45 Cm  06 10 41.046236 +01 56 34.38119
 2019-Jan-28 09:46 Cm  06 10 41.099570 +01 56 35.03711
 2019-Jan-28 09:47 Cm  06 10 41.153033 +01 56 35.69306
 2019-Jan-28 09:48 Cm  06 10 41.206627 +01 56 36.34903
 2019-Jan-28 09:49 Cm  06 10 41.260350 +01 56 37.00502
 2019-Jan-28 09:50 Cm  06 10 41.314202 +01 56 37.66104
 2019-Jan-28 09:51 Cm  06 10 41.368184 +01 56 38.31708
 2019-Jan-28 09:52 Cm  06 10 41.422295 +01 56 38.97315
 2019-Jan-28 09:53 Cm  06 10 41.476534 +01 56 39.62924
 2019-Jan-28 09:54 Cm  06 10 41.530903 +01 56 40.28535
 2019-Jan-28 09:55 Cm  06 10 41.585399 +01 56 40.94149
 2019-Jan-28 09:56 Cm  06 10 41.640023 +01 56 41.59766
 2019-Jan-28 09:57 Cm  06 10 41.694776 +01 56 42.25385
 2019-Jan-28 09:58 Cm  06 10 41.749655 +01 56 42.91007
